{
  "type": "FeatureCollection",
  "features": [
    {
      "type": "Feature",
      "properties": {
        "norad_id": 28051,
        "name": "IRS-P6 (RESOURCESAT-1)",
        "group": "resource",
        "lat": 56.29998793233966,
        "lon": -126.00339467706917,
        "alt_km": 720.775060052435,
        "timestamp": "2025-12-27T18:38:03.135713+00:00",
        "meta_object_name": "IRS-P6 (RESOURCESAT-1)",
        "meta_object_id": "2003-046A",
        "meta_epoch": "2025-12-27T13:46:02.936640",
        "meta_mean_motion": 14.36081352,
        "meta_eccentricity": 0.0065011,
        "meta_inclination": 98.2159,
        "meta_ra_of_asc_node": 41.2917,
        "meta_arg_of_pericenter": 136.4252,
        "meta_mean_anomaly": 18.7377,
        "meta_ephemeris_type": 0,
        "meta_classification_type": "U",
        "meta_norad_cat_id": 28051,
        "meta_element_set_no": 999,
        "meta_rev_at_epoch": 15589,
        "meta_bstar": 9.0655e-05,
        "meta_mean_motion_dot": 2.3e-06,
        "meta_mean_motion_ddot": 0,
        "tle_line1": "1 28051U 03046A   25361.57364510  .00000230  00000+0  90655-4 0  9990",
        "tle_line2": "2 28051  98.2159  41.2917 0065011 136.4252  18.7377 14.36081352155896"
      },
      "geometry": {
        "type": "Point",
        "coordinates": [
          -126.00339467706917,
          56.29998793233966
        ]
      }
    },
    {
      "type": "Feature",
      "properties": {
        "norad_id": 28220,
        "name": "SHIYAN-1 (SY-1)",
        "group": "resource",
        "lat": -56.09454590215698,
        "lon": 76.11381551515419,
        "alt_km": 484.5532598483487,
        "timestamp": "2025-12-27T18:38:03.135725+00:00",
        "meta_object_name": "SHIYAN-1 (SY-1)",
        "meta_object_id": "2004-012A",
        "meta_epoch": "2025-12-27T03:10:17.240736",
        "meta_mean_motion": 15.28524905,
        "meta_eccentricity": 0.00051661,
        "meta_inclination": 97.8914,
        "meta_ra_of_asc_node": 63.5214,
        "meta_arg_of_pericenter": 264.7953,
        "meta_mean_anomaly": 95.2696,
        "meta_ephemeris_type": 0,
        "meta_classification_type": "U",
        "meta_norad_cat_id": 28220,
        "meta_element_set_no": 999,
        "meta_rev_at_epoch": 18476,
        "meta_bstar": 0.00061686102,
        "meta_mean_motion_dot": 0.00017068,
        "meta_mean_motion_ddot": 0,
        "tle_line1": "1 28220U 04012A   25361.13214399  .00017068  00000+0  61686-3 0  9991",
        "tle_line2": "2 28220  97.8914  63.5214 0005166 264.7953  95.2696 15.28524905184763"
      },
      "geometry": {
        "type": "Point",
        "coordinates": [
          76.11381551515419,
          -56.09454590215698
        ]
      }
    },
    {
      "type": "Feature",
      "properties": {
        "norad_id": 28376,
        "name": "AURA",
        "group": "resource",
        "lat": -63.63943000824978,
        "lon": -30.748307765474074,
        "alt_km": 698.1245092777608,
        "timestamp": "2025-12-27T18:38:03.135736+00:00",
        "meta_object_name": "AURA",
        "meta_object_id": "2004-026A",
        "meta_epoch": "2025-12-27T10:42:44.417952",
        "meta_mean_motion": 14.60980823,
        "meta_eccentricity": 0.0001458,
        "meta_inclination": 98.3205,
        "meta_ra_of_asc_node": 311.7431,
        "meta_arg_of_pericenter": 90.22,
        "meta_mean_anomaly": 269.9167,
        "meta_ephemeris_type": 0,
        "meta_classification_type": "U",
        "meta_norad_cat_id": 28376,
        "meta_element_set_no": 999,
        "meta_rev_at_epoch": 14113,
        "meta_bstar": 0.00026631,
        "meta_mean_motion_dot": 1.258e-05,
        "meta_mean_motion_ddot": 0,
        "tle_line1": "1 28376U 04026A   25361.44634743  .00001258  00000+0  26631-3 0  9996",
        "tle_line2": "2 28376  98.3205 311.7431 0001458  90.2200 269.9167 14.60980823141137"
      },
      "geometry": {
        "type": "Point",
        "coordinates": [
          -30.748307765474074,
          -63.63943000824978
        ]
      }
    },
    {
      "type": "Feature",
      "properties": {
        "norad_id": 28649,
        "name": "IRS-P5 (CARTOSAT-1)",
        "group": "resource",
        "lat": -59.24907555689736,
        "lon": 40.39993209065974,
        "alt_km": 603.8965655636812,
        "timestamp": "2025-12-27T18:38:03.135747+00:00",
        "meta_object_name": "IRS-P5 (CARTOSAT-1)",
        "meta_object_id": "2005-017A",
        "meta_epoch": "2025-12-27T01:10:47.096544",
        "meta_mean_motion": 14.90453087,
        "meta_eccentricity": 4.68e-05,
        "meta_inclination": 97.5482,
        "meta_ra_of_asc_node": 26.8273,
        "meta_arg_of_pericenter": 77.8552,
        "meta_mean_anomaly": 282.2719,
        "meta_ephemeris_type": 0,
        "meta_classification_type": "U",
        "meta_norad_cat_id": 28649,
        "meta_element_set_no": 999,
        "meta_rev_at_epoch": 11817,
        "meta_bstar": 0.00019183665,
        "meta_mean_motion_dot": 1.818e-05,
        "meta_mean_motion_ddot": 0,
        "tle_line1": "1 28649U 05017A   25361.04915621  .00001818  00000+0  19184-3 0  9990",
        "tle_line2": "2 28649  97.5482  26.8273 0000468  77.8552 282.2719 14.90453087118176"
      },
      "geometry": {
        "type": "Point",
        "coordinates": [
          40.39993209065974,
          -59.24907555689736
        ]
      }
    },
    {
      "type": "Feature",
      "properties": {
        "norad_id": 28893,
        "name": "SINAH 1",
        "group": "resource",
        "lat": -55.30721852575399,
        "lon": 142.48972006958348,
        "alt_km": 696.9338129974867,
        "timestamp": "2025-12-27T18:38:03.135758+00:00",
        "meta_object_name": "SINAH 1",
        "meta_object_id": "2005-043D",
        "meta_epoch": "2025-12-27T10:41:20.812128",
        "meta_mean_motion": 14.63978185,
        "meta_eccentricity": 0.001573,
        "meta_inclination": 98.261,
        "meta_ra_of_asc_node": 130.0428,
        "meta_arg_of_pericenter": 94.1832,
        "meta_mean_anomaly": 266.1168,
        "meta_ephemeris_type": 0,
        "meta_classification_type": "U",
        "meta_norad_cat_id": 28893,
        "meta_element_set_no": 999,
        "meta_rev_at_epoch": 7539,
        "meta_bstar": 0.00011514,
        "meta_mean_motion_dot": 5.55e-06,
        "meta_mean_motion_ddot": 0,
        "tle_line1": "1 28893U 05043D   25361.44537977  .00000555  00000+0  11514-3 0  9994",
        "tle_line2": "2 28893  98.2610 130.0428 0015730  94.1832 266.1168 14.63978185 75395"
      },
      "geometry": {
        "type": "Point",
        "coordinates": [
          142.48972006958348,
          -55.30721852575399
        ]
      }
    },
    {
      "type": "Feature",
      "properties": {
        "norad_id": 29079,
        "name": "EROS B",
        "group": "resource",
        "lat": -38.89651887844602,
        "lon": 125.0931179256683,
        "alt_km": 352.1926130622869,
        "timestamp": "2025-12-27T18:38:03.135770+00:00",
        "meta_object_name": "EROS B",
        "meta_object_id": "2006-014A",
        "meta_epoch": "2025-12-27T12:41:42.881856",
        "meta_mean_motion": 15.7336517,
        "meta_eccentricity": 0.0005029,
        "meta_inclination": 97.3441,
        "meta_ra_of_asc_node": 118.859,
        "meta_arg_of_pericenter": 313.2031,
        "meta_mean_anomaly": 46.8812,
        "meta_ephemeris_type": 0,
        "meta_classification_type": "U",
        "meta_norad_cat_id": 29079,
        "meta_element_set_no": 999,
        "meta_rev_at_epoch": 9312,
        "meta_bstar": 0.0015559,
        "meta_mean_motion_dot": 0.00220224,
        "meta_mean_motion_ddot": 0,
        "tle_line1": "1 29079U 06014A   25361.52896854  .00220224  00000+0  15559-2 0  9990",
        "tle_line2": "2 29079  97.3441 118.8590 0005029 313.2031  46.8812 15.73365170 93120"
      },
      "geometry": {
        "type": "Point",
        "coordinates": [
          125.0931179256683,
          -38.89651887844602
        ]
      }
    },
    {
      "type": "Feature",
      "properties": {
        "norad_id": 29228,
        "name": "RESURS-DK 1",
        "group": "resource",
        "lat": -16.882169114484014,
        "lon": 56.60705314190428,
        "alt_km": 534.2415204048348,
        "timestamp": "2025-12-27T18:38:03.135797+00:00",
        "meta_object_name": "RESURS-DK 1",
        "meta_object_id": "2006-021A",
        "meta_epoch": "2025-12-27T10:46:34.247136",
        "meta_mean_motion": 15.12244542,
        "meta_eccentricity": 0.0006986,
        "meta_inclination": 69.9337,
        "meta_ra_of_asc_node": 63.822,
        "meta_arg_of_pericenter": 245.9893,
        "meta_mean_anomaly": 114.0542,
        "meta_ephemeris_type": 0,
        "meta_classification_type": "U",
        "meta_norad_cat_id": 29228,
        "meta_element_set_no": 999,
        "meta_rev_at_epoch": 7660,
        "meta_bstar": 0.0001939,
        "meta_mean_motion_dot": 3.254e-05,
        "meta_mean_motion_ddot": 0,
        "tle_line1": "1 29228U 06021A   25361.44900749  .00003254  00000+0  19390-3 0  9994",
        "tle_line2": "2 29228  69.9337  63.8220 0006986 245.9893 114.0542 15.12244542 76608"
      },
      "geometry": {
        "type": "Point",
        "coordinates": [
          56.60705314190428,
          -16.882169114484014
        ]
      }
    }
  ]
}